{
  "type": "FeatureCollection",
  "features": [
    {
      "type": "Feature",
      "properties": {
        "norad_id": 66421,
        "name": "CZ-12 R/B",
        "group": "last-30-days",
        "lat": -43.094346386087764,
        "lon": 165.68812206406923,
        "alt_km": 712.791840088601,
        "timestamp": "2025-12-04T10:51:48.875249+00:00",
        "meta_object_name": "CZ-12 R/B",
        "meta_object_id": "2025-258K",
        "meta_epoch": "2025-12-03T23:45:48.036384",
        "meta_mean_motion": 14.423167,
        "meta_eccentricity": 0.00645689,
        "meta_inclination": 49.9964,
        "meta_ra_of_asc_node": 295.913,
        "meta_arg_of_pericenter": 217.9673,
        "meta_mean_anomaly": 141.6687,
        "meta_ephemeris_type": 0,
        "meta_classification_type": "U",
        "meta_norad_cat_id": 66421,
        "meta_element_set_no": 999,
        "meta_rev_at_epoch": 345,
        "meta_bstar": 4.0078124e-05,
        "meta_mean_motion_dot": -3.4e-07,
        "meta_mean_motion_ddot": 0,
        "tle_line1": "1 66421U 25258K   25337.99013931 -.00000034  00000+0  40078-4 0  9996",
        "tle_line2": "2 66421  49.9964 295.9130 0064568 217.9673 141.6687 14.42316700  3458"
      },
      "geometry": {
        "type": "Point",
        "coordinates": [
          165.68812206406923,
          -43.094346386087764
        ]
      }
    },
    {
      "type": "Feature",
      "properties": {
        "norad_id": 66422,
        "name": "STARLINK-35617",
        "group": "last-30-days",
        "lat": 1.2988923870358766,
        "lon": 97.25753896467424,
        "alt_km": 435.7937700970642,
        "timestamp": "2025-12-04T10:51:48.875276+00:00",
        "meta_object_name": "STARLINK-35617",
        "meta_object_id": "2025-259A",
        "meta_epoch": "2025-12-04T04:00:03.000096",
        "meta_mean_motion": 15.4460319,
        "meta_eccentricity": 0.0001253,
        "meta_inclination": 43.0004,
        "meta_ra_of_asc_node": 97.5196,
        "meta_arg_of_pericenter": 272.9018,
        "meta_mean_anomaly": 297.8083,
        "meta_ephemeris_type": 0,
        "meta_classification_type": "U",
        "meta_norad_cat_id": 66422,
        "meta_element_set_no": 999,
        "meta_rev_at_epoch": 490,
        "meta_bstar": -0.048237,
        "meta_mean_motion_dot": -0.020433,
        "meta_mean_motion_ddot": 0,
        "tle_line1": "1 66422U 25259A   25338.16670139 -.02043300  00000+0 -48237-1 0  9995",
        "tle_line2": "2 66422  43.0004  97.5196 0001253 272.9018 297.8083 15.44603190  4903"
      },
      "geometry": {
        "type": "Point",
        "coordinates": [
          97.25753896467424,
          1.2988923870358766
        ]
      }
    },
    {
      "type": "Feature",
      "properties": {
        "norad_id": 66423,
        "name": "STARLINK-35618",
        "group": "last-30-days",
        "lat": 7.371738199536611,
        "lon": 103.82147932635387,
        "alt_km": 431.1969890189748,
        "timestamp": "2025-12-04T10:51:48.875288+00:00",
        "meta_object_name": "STARLINK-35618",
        "meta_object_id": "2025-259B",
        "meta_epoch": "2025-12-04T04:00:03.000096",
        "meta_mean_motion": 15.45928941,
        "meta_eccentricity": 0.0001277,
        "meta_inclination": 43.0006,
        "meta_ra_of_asc_node": 97.5007,
        "meta_arg_of_pericenter": 271.9455,
        "meta_mean_anomaly": 306.3321,
        "meta_ephemeris_type": 0,
        "meta_classification_type": "U",
        "meta_norad_cat_id": 66423,
        "meta_element_set_no": 999,
        "meta_rev_at_epoch": 490,
        "meta_bstar": -0.045834,
        "meta_mean_motion_dot": -0.02033816,
        "meta_mean_motion_ddot": 0,
        "tle_line1": "1 66423U 25259B   25338.16670139 -.02033816  00000+0 -45834-1 0  9997",
        "tle_line2": "2 66423  43.0006  97.5007 0001277 271.9455 306.3321 15.45928941  4903"
      },
      "geometry": {
        "type": "Point",
        "coordinates": [
          103.82147932635387,
          7.371738199536611
        ]
      }
    },
    {
      "type": "Feature",
      "properties": {
        "norad_id": 66424,
        "name": "STARLINK-35588",
        "group": "last-30-days",
        "lat": 12.408785185087122,
        "lon": 109.48009613799009,
        "alt_km": 426.7639599444183,
        "timestamp": "2025-12-04T10:51:48.875299+00:00",
        "meta_object_name": "STARLINK-35588",
        "meta_object_id": "2025-259C",
        "meta_epoch": "2025-12-04T04:00:03.000096",
        "meta_mean_motion": 15.47283801,
        "meta_eccentricity": 0.0001312,
        "meta_inclination": 43.0005,
        "meta_ra_of_asc_node": 97.4859,
        "meta_arg_of_pericenter": 268.3276,
        "meta_mean_anomaly": 316.0892,
        "meta_ephemeris_type": 0,
        "meta_classification_type": "U",
        "meta_norad_cat_id": 66424,
        "meta_element_set_no": 999,
        "meta_rev_at_epoch": 490,
        "meta_bstar": -0.044838,
        "meta_mean_motion_dot": -0.02080215,
        "meta_mean_motion_ddot": 0,
        "tle_line1": "1 66424U 25259C   25338.16670139 -.02080215  00000+0 -44838-1 0  9996",
        "tle_line2": "2 66424  43.0005  97.4859 0001312 268.3276 316.0892 15.47283801  4900"
      },
      "geometry": {
        "type": "Point",
        "coordinates": [
          109.48009613799009,
          12.408785185087122
        ]
      }
    },
    {
      "type": "Feature",
      "properties": {
        "norad_id": 66425,
        "name": "STARLINK-35555",
        "group": "last-30-days",
        "lat": 16.407479020530882,
        "lon": 114.2265635035637,
        "alt_km": 422.4420464432733,
        "timestamp": "2025-12-04T10:51:48.875313+00:00",
        "meta_object_name": "STARLINK-35555",
        "meta_object_id": "2025-259D",
        "meta_epoch": "2025-12-04T04:00:03.000096",
        "meta_mean_motion": 15.48608008,
        "meta_eccentricity": 0.000146,
        "meta_inclination": 43.0004,
        "meta_ra_of_asc_node": 97.4724,
        "meta_arg_of_pericenter": 265.7494,
        "meta_mean_anomaly": 323.3957,
        "meta_ephemeris_type": 0,
        "meta_classification_type": "U",
        "meta_norad_cat_id": 66425,
        "meta_element_set_no": 999,
        "meta_rev_at_epoch": 490,
        "meta_bstar": -0.042519,
        "meta_mean_motion_dot": -0.02068506,
        "meta_mean_motion_ddot": 0,
        "tle_line1": "1 66425U 25259D   25338.16670139 -.02068506  00000+0 -42519-1 0  9990",
        "tle_line2": "2 66425  43.0004  97.4724 0001460 265.7494 323.3957 15.48608008  4902"
      },
      "geometry": {
        "type": "Point",
        "coordinates": [
          114.2265635035637,
          16.407479020530882
        ]
      }
    },
    {
      "type": "Feature",
      "properties": {
        "norad_id": 66426,
        "name": "STARLINK-35589",
        "group": "last-30-days",
        "lat": 19.405846582836563,
        "lon": 118.0074488923025,
        "alt_km": 418.104431660875,
        "timestamp": "2025-12-04T10:51:48.875323+00:00",
        "meta_object_name": "STARLINK-35589",
        "meta_object_id": "2025-259E",
        "meta_epoch": "2025-12-04T04:00:03.000096",
        "meta_mean_motion": 15.49950454,
        "meta_eccentricity": 0.0001309,
        "meta_inclination": 43.0005,
        "meta_ra_of_asc_node": 97.4656,
        "meta_arg_of_pericenter": 266.6085,
        "meta_mean_anomaly": 325.8503,
        "meta_ephemeris_type": 0,
        "meta_classification_type": "U",
        "meta_norad_cat_id": 66426,
        "meta_element_set_no": 999,
        "meta_rev_at_epoch": 490,
        "meta_bstar": -0.041211,
        "meta_mean_motion_dot": -0.0209909,
        "meta_mean_motion_ddot": 0,
        "tle_line1": "1 66426U 25259E   25338.16670139 -.02099090  00000+0 -41211-1 0  9991",
        "tle_line2": "2 66426  43.0005  97.4656 0001309 266.6085 325.8503 15.49950454  4906"
      },
      "geometry": {
        "type": "Point",
        "coordinates": [
          118.0074488923025,
          19.405846582836563
        ]
      }
    },
    {
      "type": "Feature",
      "properties": {
        "norad_id": 66427,
        "name": "STARLINK-35611",
        "group": "last-30-days",
        "lat": 21.434022900787554,
        "lon": 120.70312461601895,
        "alt_km": 414.26274479463063,
        "timestamp": "2025-12-04T10:51:48.875335+00:00",
        "meta_object_name": "STARLINK-35611",
        "meta_object_id": "2025-259F",
        "meta_epoch": "2025-12-04T04:00:03.000096",
        "meta_mean_motion": 15.50990233,
        "meta_eccentricity": 0.0001454,
        "meta_inclination": 43.0005,
        "meta_ra_of_asc_node": 97.46,
        "meta_arg_of_pericenter": 257.1151,
        "meta_mean_anomaly": 337.3799,
        "meta_ephemeris_type": 0,
        "meta_classification_type": "U",
        "meta_norad_cat_id": 66427,
        "meta_element_set_no": 999,
        "meta_rev_at_epoch": 490,
        "meta_bstar": -0.031744,
        "meta_mean_motion_dot": -0.01689657,
        "meta_mean_motion_ddot": 0,
        "tle_line1": "1 66427U 25259F   25338.16670139 -.01689657  00000+0 -31744-1 0  9995",
        "tle_line2": "2 66427  43.0005  97.4600 0001454 257.1151 337.3799 15.50990233  4902"
      },
      "geometry": {
        "type": "Point",
        "coordinates": [
          120.70312461601895,
          21.434022900787554
        ]
      }
    }
  ]
}